      2.10          N: GNSS NAV DATA                        RINEX VERSION / TYPE
fic2rin                                 10/02/2018 00:20:17 PGM / RUN BY / DATE
                                                            END OF HEADER
29 18 10  1  3 59 44.0 3.659278154373e-04-7.503331289627e-12 0.000000000000e+00
    6.000000000000e+00-8.328125000000e+01 4.005166831275e-09-4.152735080942e-01
   -4.347413778305e-06 7.546701235697e-04 6.319954991341e-06 5.153626689911e+03
    1.007840000000e+05-1.490116119385e-08 2.904790048508e-01 6.519258022308e-08
    9.849021593911e-01 2.696562500000e+02 1.631843384758e+00-7.979618097409e-09
   -2.392956819114e-10 1.000000000000e+00 2.021000000000e+03 0.000000000000e+00
    2.400000000000e+00 0.000000000000e+00-1.024454832077e-08 6.000000000000e+00
    9.669600000000e+04 4.000000000000e+00
 7 18 10  1  3 59 44.0 1.147063449025e-04-6.707523425575e-12 0.000000000000e+00
    2.400000000000e+01 7.143750000000e+01 4.559475634747e-09 2.473139226644e+00
    3.673136234283e-06 1.209591201041e-02 9.138137102127e-06 5.153645704269e+03
    1.007840000000e+05-1.396983861923e-07-1.849198997029e+00-1.955777406693e-07
    9.572598307429e-01 2.036562500000e+02-2.488821579717e+00-7.914972547519e-09
    5.357366012941e-12 1.000000000000e+00 2.021000000000e+03 0.000000000000e+00
    2.400000000000e+00 0.000000000000e+00-1.117587089539e-08 2.400000000000e+01
    1.002060000000e+05 4.000000000000e+00
26 18 10  1  3 59 44.0-4.085246473551e-06 1.148237060988e-11 0.000000000000e+00
    2.800000000000e+01 5.712500000000e+01 4.927348100969e-09 9.458777707144e-01
    3.052875399590e-06 2.959645818919e-03 3.924593329430e-06 5.153730516434e+03
    1.007840000000e+05 1.303851604462e-08-8.391293962618e-01-6.891787052155e-08
    9.543274597293e-01 2.955625000000e+02 5.091742258360e-02-8.542141528768e-09
   -5.214502919263e-11 1.000000000000e+00 2.021000000000e+03 0.000000000000e+00
    2.400000000000e+00 0.000000000000e+00 7.450580596924e-09 2.800000000000e+01
    1.006560000000e+05 4.000000000000e+00
 3 18 10  1  5 59 44.0 1.433496363461e-04 4.888534022029e-12 0.000000000000e+00
    2.000000000000e+01-7.781250000000e+00 4.560547107950e-09 3.096778769540e+00
   -3.632158041000e-07 1.778625417501e-03 7.608905434608e-06 5.153664764404e+03
    1.079840000000e+05 3.166496753693e-08 2.323843271091e+00-9.313225746155e-09
    9.616160716264e-01 2.326562500000e+02 6.529634607662e-01-8.010333662550e-09
    2.692969315838e-10 1.000000000000e+00 2.021000000000e+03 0.000000000000e+00
    2.400000000000e+00 0.000000000000e+00 1.862645149231e-09 2.000000000000e+01
    1.008060000000e+05 4.000000000000e+00
 7 18 10  1  5 59 44.0 1.146579161286e-04-6.707523425575e-12 0.000000000000e+00
    2.500000000000e+01 6.765625000000e+01 4.534117435619e-09-2.759810062630e+00
    3.326684236526e-06 1.209686021321e-02 9.544193744659e-06 5.153643846512e+03
    1.079840000000e+05 7.450580596924e-09-1.849255731918e+00-1.899898052216e-07
    9.572600589581e-01 1.959062500000e+02-2.488858436475e+00-7.879971089568e-09
    2.821546100149e-11 1.000000000000e+00 2.021000000000e+03 0.000000000000e+00
    2.400000000000e+00 0.000000000000e+00-1.117587089539e-08 2.500000000000e+01
    1.008060000000e+05 4.000000000000e+00
18 18 10  1  5 59 44.0 6.329314783216e-05 4.206412995700e-12 0.000000000000e+00
    7.000000000000e+00-6.221875000000e+01 4.421612749348e-09-2.342801381550e+00
   -3.086403012276e-06 1.498931157403e-02 9.408220648766e-06 5.153631914139e+03
    1.079840000000e+05 2.011656761169e-07 1.230800741437e+00-1.490116119385e-08
    9.509003020258e-01 1.908750000000e+02 1.352831600786e+00-7.767823561031e-09
    2.203663219990e-10 1.000000000000e+00 2.021000000000e+03 0.000000000000e+00
    2.400000000000e+00 0.000000000000e+00-6.519258022308e-09 7.000000000000e+00
    1.008060000000e+05 4.000000000000e+00
26 18 10  1  5 59 44.0-4.002824425697e-06 1.148237060988e-11 0.000000000000e+00
    2.900000000000e+01 6.225000000000e+01 5.011994483974e-09 1.996348426051e+00
    3.330409526825e-06 2.959939069115e-03 3.792345523834e-06 5.153728792191e+03
    1.079840000000e+05 1.117587089539e-08-8.391916405003e-01 9.313225746155e-08
    9.543275314123e-01 3.027187500000e+02 5.059664268469e-02-8.543213001970e-09
    8.357490980188e-11 1.000000000000e+00 2.021000000000e+03 0.000000000000e+00
    2.400000000000e+00 0.000000000000e+00 7.450580596924e-09 2.900000000000e+01
    1.008060000000e+05 4.000000000000e+00
29 18 10  1  5 59 44.0 3.658733330667e-04-7.503331289627e-12 0.000000000000e+00
    1.700000000000e+01-7.818750000000e+01 4.008024093148e-09 6.353981024471e-01
   -4.123896360397e-06 7.545292610303e-04 6.357207894325e-06 5.153626342773e+03
    1.079840000000e+05-5.774199962616e-08 2.904215443545e-01 5.029141902924e-08
    9.849004199815e-01 2.690625000000e+02 1.631377410240e+00-7.965688945775e-09
   -2.339383158984e-10 1.000000000000e+00 2.021000000000e+03 0.000000000000e+00
    2.400000000000e+00 0.000000000000e+00-1.024454832077e-08 1.700000000000e+01
    1.008060000000e+05 4.000000000000e+00
 2 18 10  1  6  0  0.0-1.728255301714e-05-1.091393642128e-11 0.000000000000e+00
    5.300000000000e+01-3.596875000000e+01 4.578404994660e-09-1.802026255592e+00
   -1.849606633186e-06 1.818875514437e-02 9.320676326752e-06 5.153564344406e+03
    1.080000000000e+05 4.488974809647e-07 1.216961850934e+00 1.490116119385e-07
    9.515590657403e-01 1.936875000000e+02-1.827050136429e+00-7.853541417238e-09
    1.157191058795e-10 1.000000000000e+00 2.021000000000e+03 0.000000000000e+00
    2.400000000000e+00 0.000000000000e+00-2.048909664154e-08 5.300000000000e+01
    1.008060000000e+05 4.000000000000e+00
 1 18 10  1  6  0  0.0-9.475741535425e-05-4.774847184308e-12 0.000000000000e+00
    2.800000000000e+01-5.418750000000e+01 4.036239554150e-09-2.119343240159e+00
   -2.723187208176e-06 8.133414201438e-03 9.316951036453e-06 5.153666318893e+03
    1.080000000000e+05 2.421438694000e-08 1.280738601389e+00-7.450580596924e-08
    9.724441626141e-01 2.065937500000e+02 6.978477726180e-01-7.684248651229e-09
    2.539391490134e-10 1.000000000000e+00 2.021000000000e+03 0.000000000000e+00
    2.400000000000e+00 0.000000000000e+00 5.587935447693e-09 2.800000000000e+01
    1.008060000000e+05 4.000000000000e+00
 5 18 10  1  6  0  0.0-1.405831426382e-06 3.410605131648e-13 0.000000000000e+00
    6.800000000000e+01 3.281250000000e+00 4.938419990729e-09 7.962598049484e-01
    3.483146429062e-07 5.662328563631e-03 7.122755050659e-06 5.153785488129e+03
    1.080000000000e+05-1.173466444016e-07 2.300290088132e+00 7.636845111847e-08
    9.484836564486e-01 2.362500000000e+02 6.928270114374e-01-8.276059016792e-09
    1.796503403006e-10 1.000000000000e+00 2.021000000000e+03 0.000000000000e+00
    2.400000000000e+00 0.000000000000e+00-1.117587089539e-08 6.800000000000e+01
    1.008060000000e+05 4.000000000000e+00
22 18 10  1  6  0  0.0-5.344594828784e-04-1.057287590811e-11 0.000000000000e+00
    3.100000000000e+01-7.718750000000e+00 5.456298705314e-09-6.817496991886e-01
   -2.961605787277e-07 7.044828147627e-03 7.459893822670e-06 5.153694696426e+03
    1.080000000000e+05-8.381903171539e-08 2.259597359883e+00 7.264316082001e-08
    9.257868569558e-01 2.186562500000e+02-1.476616201940e+00-8.581428879529e-09
    3.242992226500e-10 1.000000000000e+00 2.021000000000e+03 0.000000000000e+00
    2.400000000000e+00 0.000000000000e+00-1.816079020500e-08 3.100000000000e+01
    1.008060000000e+05 4.000000000000e+00
25 18 10  1  6  0  0.0-6.550932303071e-04-5.684341886081e-12 0.000000000000e+00
    2.200000000000e+01 5.462500000000e+01 4.422684222550e-09 2.530341425757e+00
    2.719461917877e-06 7.468844298273e-03 3.822147846222e-06 5.153586843491e+03
    1.080000000000e+05 3.725290298462e-09-8.149582620771e-01-1.713633537292e-07
    9.728920935008e-01 3.115937500000e+02 8.608716855954e-01-8.118195298277e-09
    8.500354073867e-11 1.000000000000e+00 2.021000000000e+03 0.000000000000e+00
    2.400000000000e+00 0.000000000000e+00 5.587935447693e-09 2.200000000000e+01
    1.008060000000e+05 4.000000000000e+00
15 18 10  1  6  0  0.0-3.443858586252e-04 1.136868377216e-12 0.000000000000e+00
    2.000000000000e+01-8.000000000000e+00 5.407368095729e-09-8.383377556982e-01
   -2.160668373108e-07 1.078426651657e-02 7.713213562965e-06 5.153565399170e+03
    1.080000000000e+05 1.657754182816e-07-3.000340712554e+00 1.788139343262e-07
    9.285405325260e-01 2.096562500000e+02 7.089610624111e-01-8.512140279095e-09
   -2.217949529358e-10 1.000000000000e+00 2.021000000000e+03 0.000000000000e+00
    2.400000000000e+00 0.000000000000e+00-1.071020960808e-08 2.000000000000e+01
    1.008060000000e+05 4.000000000000e+00
23 18 10  1  6  0  0.0-2.097021788359e-04 7.958078640513e-13 0.000000000000e+00
    2.300000000000e+01 8.125000000000e-01 5.016637534518e-09-1.307180229783e+00
    1.266598701477e-07 1.264006027486e-02 7.709488272667e-06 5.153719078064e+03
    1.080000000000e+05 3.073364496231e-07-2.929270417242e+00 3.352761268616e-08
    9.438205216846e-01 2.160625000000e+02-2.325815439732e+00-8.208199047294e-09
   -1.575065607805e-10 1.000000000000e+00 2.021000000000e+03 0.000000000000e+00
    2.400000000000e+00 0.000000000000e+00-2.002343535423e-08 2.300000000000e+01
    1.008060000000e+05 4.000000000000e+00
13 18 10  1  6  0  0.0-8.805701509118e-05 7.958078640513e-13 0.000000000000e+00
    2.500000000000e+01 2.500000000000e+00 4.403754862638e-09-1.118320210686e+00
    1.974403858185e-07 3.436773549765e-03 8.851289749146e-06 5.153667465210e+03
    1.080000000000e+05-5.587935447693e-08-2.792876446789e+00 7.823109626770e-08
    9.686053397631e-01 2.143750000000e+02 1.453446171856e+00-7.953545582813e-09
   -2.510818871398e-10 1.000000000000e+00 2.021000000000e+03 0.000000000000e+00
    2.400000000000e+00 0.000000000000e+00-1.117587089539e-08 2.500000000000e+01
    1.008060000000e+05 4.000000000000e+00
